{
  "type": "FeatureCollection",
  "features": [
    {
      "type": "Feature",
      "properties": {
        "norad_id": 35052,
        "name": "IRIDIUM 33 DEB",
        "group": "iridium-33-debris",
        "lat": 7.306853150064712,
        "lon": -161.462125110247,
        "alt_km": 766.8347007884904,
        "timestamp": "2025-12-16T03:53:27.440650+00:00",
        "meta_object_name": "IRIDIUM 33 DEB",
        "meta_object_id": "1997-051NY",
        "meta_epoch": "2025-12-14T12:41:41.757792",
        "meta_mean_motion": 14.38494384,
        "meta_eccentricity": 0.0013625,
        "meta_inclination": 86.3309,
        "meta_ra_of_asc_node": 19.7092,
        "meta_arg_of_pericenter": 80.11,
        "meta_mean_anomaly": 280.1635,
        "meta_ephemeris_type": 0,
        "meta_classification_type": "U",
        "meta_norad_cat_id": 35052,
        "meta_element_set_no": 999,
        "meta_rev_at_epoch": 87301,
        "meta_bstar": 0.00021343381,
        "meta_mean_motion_dot": 6.72e-06,
        "meta_mean_motion_ddot": 0,
        "tle_line1": "1 35052U 97051NY  25348.52895553  .00000672  00000+0  21343-3 0  9991",
        "tle_line2": "2 35052  86.3309  19.7092 0013625  80.1100 280.1635 14.38494384873013"
      },
      "geometry": {
        "type": "Point",
        "coordinates": [
          -161.462125110247,
          7.306853150064712
        ]
      }
    },
    {
      "type": "Feature",
      "properties": {
        "norad_id": 35080,
        "name": "IRIDIUM 33 DEB",
        "group": "iridium-33-debris",
        "lat": -36.07525843241565,
        "lon": -126.48926661652449,
        "alt_km": 587.5166383171509,
        "timestamp": "2025-12-16T03:53:27.440661+00:00",
        "meta_object_name": "IRIDIUM 33 DEB",
        "meta_object_id": "1997-051PF",
        "meta_epoch": "2025-12-14T21:50:31.542720",
        "meta_mean_motion": 14.86372619,
        "meta_eccentricity": 0.00598634,
        "meta_inclination": 86.2067,
        "meta_ra_of_asc_node": 51.3389,
        "meta_arg_of_pericenter": 172.1513,
        "meta_mean_anomaly": 188.0663,
        "meta_ephemeris_type": 0,
        "meta_classification_type": "U",
        "meta_norad_cat_id": 35080,
        "meta_element_set_no": 999,
        "meta_rev_at_epoch": 69720,
        "meta_bstar": 0.0037877537,
        "meta_mean_motion_dot": 0.00034651,
        "meta_mean_motion_ddot": 0,
        "tle_line1": "1 35080U 97051PF  25348.91008730  .00034651  00000+0  37878-2 0  9991",
        "tle_line2": "2 35080  86.2067  51.3389 0059863 172.1513 188.0663 14.86372619697200"
      },
      "geometry": {
        "type": "Point",
        "coordinates": [
          -126.48926661652449,
          -36.07525843241565
        ]
      }
    },
    {
      "type": "Feature",
      "properties": {
        "norad_id": 35297,
        "name": "IRIDIUM 33 DEB",
        "group": "iridium-33-debris",
        "lat": 18.31855428854667,
        "lon": -119.89877750279035,
        "alt_km": 731.1751643350617,
        "timestamp": "2025-12-16T03:53:27.440671+00:00",
        "meta_object_name": "IRIDIUM 33 DEB",
        "meta_object_id": "1997-051PM",
        "meta_epoch": "2025-12-14T12:55:35.277600",
        "meta_mean_motion": 14.45168041,
        "meta_eccentricity": 0.00176283,
        "meta_inclination": 86.3867,
        "meta_ra_of_asc_node": 61.9926,
        "meta_arg_of_pericenter": 135.2135,
        "meta_mean_anomaly": 225.0494,
        "meta_ephemeris_type": 0,
        "meta_classification_type": "U",
        "meta_norad_cat_id": 35297,
        "meta_element_set_no": 999,
        "meta_rev_at_epoch": 70452,
        "meta_bstar": 0.0006336217,
        "meta_mean_motion_dot": 2.241e-05,
        "meta_mean_motion_ddot": 0,
        "tle_line1": "1 35297U 97051PM  25348.53860275  .00002241  00000+0  63362-3 0  9997",
        "tle_line2": "2 35297  86.3867  61.9926 0017628 135.2135 225.0494 14.45168041704521"
      },
      "geometry": {
        "type": "Point",
        "coordinates": [
          -119.89877750279035,
          18.31855428854667
        ]
      }
    },
    {
      "type": "Feature",
      "properties": {
        "norad_id": 35299,
        "name": "IRIDIUM 33 DEB",
        "group": "iridium-33-debris",
        "lat": 40.706525328322186,
        "lon": 34.89785161419199,
        "alt_km": 725.560693518184,
        "timestamp": "2025-12-16T03:53:27.440682+00:00",
        "meta_object_name": "IRIDIUM 33 DEB",
        "meta_object_id": "1997-051PP",
        "meta_epoch": "2025-12-15T02:50:07.295136",
        "meta_mean_motion": 14.40874224,
        "meta_eccentricity": 0.00589595,
        "meta_inclination": 86.2887,
        "meta_ra_of_asc_node": 32.151,
        "meta_arg_of_pericenter": 94.8301,
        "meta_mean_anomaly": 294.7228,
        "meta_ephemeris_type": 0,
        "meta_classification_type": "U",
        "meta_norad_cat_id": 35299,
        "meta_element_set_no": 999,
        "meta_rev_at_epoch": 86365,
        "meta_bstar": 0.00057955204,
        "meta_mean_motion_dot": 1.916e-05,
        "meta_mean_motion_ddot": 0,
        "tle_line1": "1 35299U 97051PP  25349.11813999  .00001916  00000+0  57955-3 0  9994",
        "tle_line2": "2 35299  86.2887  32.1510 0058959  94.8301 294.7228 14.40874224863650"
      },
      "geometry": {
        "type": "Point",
        "coordinates": [
          34.89785161419199,
          40.706525328322186
        ]
      }
    },
    {
      "type": "Feature",
      "properties": {
        "norad_id": 35480,
        "name": "IRIDIUM 33 DEB",
        "group": "iridium-33-debris",
        "lat": -70.81207321124695,
        "lon": -146.02264557583462,
        "alt_km": 744.2023800021689,
        "timestamp": "2025-12-16T03:53:27.440692+00:00",
        "meta_object_name": "IRIDIUM 33 DEB",
        "meta_object_id": "1997-051QA",
        "meta_epoch": "2025-12-15T08:30:57.118464",
        "meta_mean_motion": 14.49774703,
        "meta_eccentricity": 0.00160032,
        "meta_inclination": 86.3571,
        "meta_ra_of_asc_node": 23.7786,
        "meta_arg_of_pericenter": 97.0457,
        "meta_mean_anomaly": 263.2568,
        "meta_ephemeris_type": 0,
        "meta_classification_type": "U",
        "meta_norad_cat_id": 35480,
        "meta_element_set_no": 999,
        "meta_rev_at_epoch": 87069,
        "meta_bstar": 0.00045738518,
        "meta_mean_motion_dot": 1.785e-05,
        "meta_mean_motion_ddot": 0,
        "tle_line1": "1 35480U 97051QA  25349.35482776  .00001785  00000+0  45739-3 0  9998",
        "tle_line2": "2 35480  86.3571  23.7786 0016003  97.0457 263.2568 14.49774703870695"
      },
      "geometry": {
        "type": "Point",
        "coordinates": [
          -146.02264557583462,
          -70.81207321124695
        ]
      }
    },
    {
      "type": "Feature",
      "properties": {
        "norad_id": 35484,
        "name": "IRIDIUM 33 DEB",
        "group": "iridium-33-debris",
        "lat": -60.20382826136731,
        "lon": -15.235556304977635,
        "alt_km": 593.4439030837711,
        "timestamp": "2025-12-16T03:53:27.440703+00:00",
        "meta_object_name": "IRIDIUM 33 DEB",
        "meta_object_id": "1997-051QE",
        "meta_epoch": "2025-12-13T07:15:48.307680",
        "meta_mean_motion": 14.98714194,
        "meta_eccentricity": 0.00237352,
        "meta_inclination": 86.3615,
        "meta_ra_of_asc_node": 352.4822,
        "meta_arg_of_pericenter": 123.3819,
        "meta_mean_anomaly": 236.9688,
        "meta_ephemeris_type": 0,
        "meta_classification_type": "U",
        "meta_norad_cat_id": 35484,
        "meta_element_set_no": 999,
        "meta_rev_at_epoch": 62024,
        "meta_bstar": 0.0048114888,
        "meta_mean_motion_dot": 0.00058609,
        "meta_mean_motion_ddot": 0,
        "tle_line1": "1 35484U 97051QE  25347.30264245  .00058609  00000+0  48115-2 0  9991",
        "tle_line2": "2 35484  86.3615 352.4822 0023735 123.3819 236.9688 14.98714194620242"
      },
      "geometry": {
        "type": "Point",
        "coordinates": [
          -15.235556304977635,
          -60.20382826136731
        ]
      }
    },
    {
      "type": "Feature",
      "properties": {
        "norad_id": 35488,
        "name": "IRIDIUM 33 DEB",
        "group": "iridium-33-debris",
        "lat": -35.4919889173863,
        "lon": 121.92792742184969,
        "alt_km": 646.4882323145212,
        "timestamp": "2025-12-16T03:53:27.440714+00:00",
        "meta_object_name": "IRIDIUM 33 DEB",
        "meta_object_id": "1997-051QJ",
        "meta_epoch": "2025-12-15T07:29:31.144128",
        "meta_mean_motion": 14.8313163,
        "meta_eccentricity": 0.00296024,
        "meta_inclination": 86.3246,
        "meta_ra_of_asc_node": 299.6926,
        "meta_arg_of_pericenter": 34.6907,
        "meta_mean_anomaly": 325.6239,
        "meta_ephemeris_type": 0,
        "meta_classification_type": "U",
        "meta_norad_cat_id": 35488,
        "meta_element_set_no": 999,
        "meta_rev_at_epoch": 88304,
        "meta_bstar": 0.0010152976,
        "meta_mean_motion_dot": 8.367e-05,
        "meta_mean_motion_ddot": 0,
        "tle_line1": "1 35488U 97051QJ  25349.31216602  .00008367  00000+0  10153-2 0  9999",
        "tle_line2": "2 35488  86.3246 299.6926 0029602  34.6907 325.6239 14.83131630883043"
      },
      "geometry": {
        "type": "Point",
        "coordinates": [
          121.92792742184969,
          -35.4919889173863
        ]
      }
    }
  ]
}